SWAS                    
1 25560U 98071A   26068.53487068  .00004636  00000+0  29986-3 0  9991
2 25560  69.8952 124.3662 0004099  14.3215 345.8065 15.08888192482231
STARLINK-3355           
1 50808U 22001F   26068.47549460 -.00000350  00000+0 -39078-5 0  9998
2 50808  53.2175 160.0827 0001396 109.4344 250.6799 15.08830150230514
